OBJECT_NAME,OBJECT_ID,EPOCH,MEAN_MOTION,ECCENTRICITY,INCLINATION,RA_OF_ASC_NODE,ARG_OF_PERICENTER,MEAN_ANOMALY,EPHEMERIS_TYPE,CLASSIFICATION_TYPE,NORAD_CAT_ID,ELEMENT_SET_NO,REV_AT_EPOCH,BSTAR,MEAN_MOTION_DOT,MEAN_MOTION_DDOT
STARLINK-38067,2026-150J,2026-07-15T12:51:41.277024,15.75208991,.00011195,97.2834,34.8963,20.4120,339.7190,0,U,69747,999,337,.11865064E-2,.180789E-2,0
STARLINK-37988,2026-150K,2026-07-15T18:55:03.700128,15.75266022,.0000953,97.2832,35.1651,76.9799,283.1572,0,U,69748,999,341,.12694E-2,.194219E-2,0
STARLINK-37987,2026-150L,2026-07-15T20:00:01.999008,15.75230816,.0001275,97.2839,35.2235,89.5653,190.2473,0,U,69749,999,340,-.85712E-3,-.126325E-2,0
STARLINK-38037,2026-150M,2026-07-15T12:22:22.425312,15.80859532,.00010112,97.2826,34.9249,80.7861,279.3522,0,U,69750,999,337,.75374461E-3,.146983E-2,0
STARLINK-38049,2026-150N,2026-07-15T12:20:54.482208,15.80863571,.00008366,97.2834,34.9277,61.2439,298.8913,0,U,69751,999,337,.77739437E-3,.15171E-2,0
STARLINK-38029,2026-150P,2026-07-15T20:00:01.999008,15.75306648,.000095,97.2840,35.2652,103.5817,270.1691,0,U,69752,999,340,-.15091E-2,-.220615E-2,0
STARLINK-37965,2026-150Q,2026-07-15T20:00:01.999008,15.75196706,.0001391,97.2838,35.2482,98.7770,237.0388,0,U,69753,999,340,-.48619E-3,-.72061E-3,0
STARLINK-38048,2026-150R,2026-07-15T12:12:05.756544,15.80926723,.00012015,97.2830,34.9357,113.3846,246.7549,0,U,69754,999,337,.13138297E-2,.260492E-2,0
STARLINK-38006,2026-150S,2026-07-15T20:00:01.999008,15.75309997,.0000618,97.2839,35.2705,119.2375,268.4893,0,U,69755,999,340,-.13873E-2,-.203245E-2,0
STARLINK-38036,2026-150T,2026-07-15T20:00:01.999008,15.76761156,.0001586,97.2844,35.2869,82.6241,342.0492,0,U,69756,999,340,-.1263E-1,-.1776472E-1,0
STARLINK-38058,2026-150U,2026-07-15T08:00:01.999872,15.80839101,.00014243,97.2831,34.7635,94.6709,14.7033,0,U,69757,999,332,-.2042199E-3,-.39126E-3,0
STARLINK-38066,2026-150V,2026-07-15T08:00:01.999872,15.80829398,.00015162,97.2834,34.7635,83.1509,27.0771,0,U,69758,999,332,-.13030531E-3,-.25046E-3,0
STARLINK-38035,2026-150W,2026-07-15T12:05:26.488320,15.80941446,.00012769,97.2831,34.9423,99.7188,260.4225,0,U,69759,999,337,.14710871E-2,.292986E-2,0
STARLINK-38056,2026-150X,2026-07-15T12:00:26.316576,15.80908796,.00014639,97.2833,34.9472,106.7473,253.3956,0,U,69760,999,337,.91636623E-3,.179811E-2,0
STARLINK-38069,2026-150Y,2026-07-15T11:55:28.818912,15.80929921,.0001427,97.2833,34.9521,100.2557,259.8872,0,U,69761,999,337,.13386221E-2,.265606E-2,0
STARLINK-38019,2026-150Z,2026-07-15T20:00:01.999008,15.75200318,.0000769,97.2832,35.2730,83.6015,308.2031,0,U,69762,999,340,-.51196E-3,-.75848E-3,0
KUIPER-00258,2026-151A,2026-07-15T15:46:54.264000,15.35362446,.0011821,51.8670,178.3277,169.8833,190.2393,0,U,69763,999,208,-.10525E-3,-.4067E-4,0
KUIPER-00526,2026-151B,2026-07-15T13:51:01.241280,15.37322286,.0006015,51.8753,178.5459,140.0223,220.1207,0,U,69764,999,207,.30919E-3,.11114E-3,0
KUIPER-00558,2026-151C,2026-07-15T13:57:05.736960,15.36555616,.0006458,51.8745,178.5740,145.4919,214.6487,0,U,69765,999,207,-.39426E-2,-.14075E-2,0
KUIPER-00569,2026-151D,2026-07-15T10:41:36.453120,15.37466891,.00050925,51.8776,179.1642,137.9006,222.2373,0,U,69766,999,205,.19737058E-3,.6981E-4,0
KUIPER-00589,2026-151E,2026-07-15T15:23:26.337120,15.37415440,.0005074,51.8750,178.2277,146.3494,213.7816,0,U,69767,999,208,.36687E-3,.13304E-3,0
KUIPER-00598,2026-151F,2026-07-15T15:46:27.251040,15.34895048,.001107,51.8672,178.3267,164.4157,195.7171,0,U,69768,999,208,-.83567E-3,-.29047E-3,0
KUIPER-00604,2026-151G,2026-07-15T13:39:34.807104,15.38236229,.0002725,51.8790,178.4911,108.4024,251.7259,0,U,69769,999,207,.23371E-3,.8558E-4,0
KUIPER-00609,2026-151H,2026-07-15T10:27:20.191104,15.38638316,.00011553,51.8792,179.0967,58.4321,301.6779,0,U,69770,999,205,.36207397E-3,.13667E-3,0
KUIPER-00611,2026-151J,2026-07-15T13:36:56.047104,15.38449171,.0001647,51.8795,178.4750,103.5365,256.5806,0,U,69771,999,207,.23734E-3,.876E-4,0
KUIPER-00612,2026-151K,2026-07-15T13:43:16.219200,15.37939327,.0003732,51.8783,178.5094,117.0263,243.1106,0,U,69772,999,207,.2494E-3,.9069E-4,0
KUIPER-00614,2026-151L,2026-07-15T13:40:38.852832,15.38149504,.0002699,51.8794,178.4953,123.2384,236.8862,0,U,69773,999,207,.22772E-3,.8304E-4,0
KUIPER-00615,2026-151M,2026-07-15T10:44:54.469824,15.37229835,.00061729,51.8764,179.1791,149.2417,210.8932,0,U,69774,999,205,.29560392E-3,.10575E-3,0
KUIPER-00616,2026-151N,2026-07-15T13:38:36.958848,15.38393428,.0003097,51.8776,178.4908,122.2284,237.9003,0,U,69775,999,207,.25797E-3,.9539E-4,0
KUIPER-00617,2026-151P,2026-07-15T13:44:53.420064,15.37785877,.0004112,51.8787,178.5159,138.0456,222.0846,0,U,69776,999,207,.3747E-3,.13764E-3,0
